NORAD_CAT_ID,OBJECT_NAME,OBJECT_TYPE,EPOCH,MEAN_MOTION,ECCENTRICITY,INCLINATION,RA_OF_ASC_NODE,ARG_OF_PERICENTER,MEAN_ANOMALY,BSTAR,MEAN_MOTION_DOT,MEAN_MOTION_DDOT,TLE_LINE0,TLE_LINE1,TLE_LINE2,SEMIMAJOR_AXIS,PERIOD,APOGEE,PERIGEE,DECAYED
52461.0,STARLINK-3900,PAYLOAD,2023-01-23 14:55:24,15.08850052,0.0001136,53.2161,131.5776,81.3087,278.8034,-2.9509e-05,-7.58e-06,0.0,0 STARLINK-3900,1 52461U 22049L   23023.62180756 -.00000758  00000-0 -29509-4 0  9991,2 52461  53.2161 131.5776 0001136  81.3087 278.8034 15.08850052 40286,6917.85,95.437,540.501,538.929,0.0
52461.0,STARLINK-3900,PAYLOAD,2023-01-24 06:49:16,15.08844227,0.0001215,53.216,128.6041,85.5625,274.5506,-4.5732e-05,-1.016e-05,0.0,0 STARLINK-3900,1 52461U 22049L   23024.28421451 -.00001016  00000-0 -45732-4 0  9998,2 52461  53.2160 128.6041 0001215  85.5625 274.5506 15.08844227 40384,6917.866999999999,95.437,540.573,538.8919999999999,0.0
52461.0,STARLINK-3900,PAYLOAD,2023-01-24 14:46:11,15.08849538,0.0001027,53.2172,127.1144,97.6046,262.5063,1.2583e-05,-8.7e-07,0.0,0 STARLINK-3900,1 52461U 22049L   23024.61540784 -.00000087  00000-0  12583-4 0  9990,2 52461  53.2172 127.1144 0001027  97.6046 262.5063 15.08849538 40438,6917.851,95.437,540.427,539.006,0.0
52461.0,STARLINK-3900,PAYLOAD,2023-01-25 13:01:36,15.08827578,6.39e-05,53.2188,122.9487,120.8292,239.2763,0.00018373,2.637e-05,0.0,0 STARLINK-3900,1 52461U 22049L   23025.54277906  .00002637  00000-0  18373-3 0  9990,2 52461  53.2188 122.9487 0000639 120.8292 239.2763 15.08827578 40571,6917.918000000001,95.438,540.225,539.341,0.0
52461.0,STARLINK-3900,PAYLOAD,2023-01-25 14:36:58,15.08842964,0.0001092,53.2184,122.6515,107.5676,252.5435,1.0329e-05,-1.23e-06,0.0,0 STARLINK-3900,1 52461U 22049L   23025.60901367 -.00000123  00000-0  10329-4 0  9995,2 52461  53.2184 122.6515 0001092 107.5676 252.5435 15.08842964 40589,6917.871,95.437,540.492,538.981,0.0
52461.0,STARLINK-3900,PAYLOAD,2023-01-26 12:52:22,15.08847512,9.51e-05,53.2184,118.4885,110.5709,249.5386,7.879e-05,9.67e-06,0.0,0 STARLINK-3900,1 52461U 22049L   23026.53637078  .00000967  00000-0  78790-4 0  9994,2 52461  53.2184 118.4885 0000951 110.5709 249.5386 15.08847512 40569,6917.857,95.437,540.38,539.065,0.0
52461.0,STARLINK-3900,PAYLOAD,2023-01-26 22:24:41,15.08838912,0.0002204,53.2182,116.7031,80.773,279.3511,7.2993e-05,8.74e-06,0.0,0 STARLINK-3900,1 52461U 22049L   23026.93381925  .00000874  00000-0  72993-4 0  9991,2 52461  53.2182 116.7031 0002204  80.7730 279.3511 15.08838912 40785,6917.884,95.438,541.273,538.224,0.0
52461.0,STARLINK-3900,PAYLOAD,2023-01-27 12:43:10,15.0883596,0.0001286999999999,53.2176,114.0317,77.5251,282.5885,2.4319e-05,9.9e-07,0.0,0 STARLINK-3900,1 52461U 22049L   23027.52998199  .00000099  00000-0  24319-4 0  9992,2 52461  53.2176 114.0317 0001287  77.5251 282.5885 15.08835960 40711,6917.893,95.438,540.648,538.867,0.0
52461.0,STARLINK-3900,PAYLOAD,2023-01-28 04:37:01,15.08843623,0.0001065,53.2169,111.0592,83.8438,276.2675,-5.23e-05,-1.12e-05,0.0,0 STARLINK-3900,1 52461U 22049L   23028.19238080 -.00001120  00000-0 -52300-4 0  9991,2 52461  53.2169 111.0592 0001065  83.8438 276.2675 15.08843623 40976,6917.869000000001,95.437,540.471,538.998,0.0
52461.0,STARLINK-3900,PAYLOAD,2023-01-28 10:58:34,15.08842133,0.0001034,53.2175,109.8693,106.7733,253.3373,-4.6073e-05,-1.021e-05,0.0,0 STARLINK-3900,1 52461U 22049L   23028.45734006 -.00001021  00000-0 -46073-4 0  9999,2 52461  53.2175 109.8693 0001034 106.7733 253.3373 15.08842133 40852,6917.874,95.437,540.454,539.024,0.0
52461.0,STARLINK-3900,PAYLOAD,2023-01-28 15:44:42,15.08856767,9.46e-05,53.2175,108.9768,67.7231,292.3861,4.2327e-05,3.86e-06,0.0,0 STARLINK-3900,1 52461U 22049L   23028.65604762  .00000386  00000-0  42327-4 0  9995,2 52461  53.2175 108.9768 0000946  67.7231 292.3861 15.08856767 41040,6917.829,95.436,540.349,539.04,0.0
52461.0,STARLINK-3900,PAYLOAD,2023-01-28 22:06:15,15.08842848,0.0001219,53.2188,107.7853,83.7438,276.3693,-1.4099e-05,-5.12e-06,0.0,0 STARLINK-3900,1 52461U 22049L   23028.92101813 -.00000512  00000-0 -14099-4 0  9992,2 52461  53.2188 107.7853 0001219  83.7438 276.3693 15.08842848 41081,6917.872,95.437,540.58,538.893,0.0
52461.0,STARLINK-3900,PAYLOAD,2023-01-29 21:57:03,15.08833297,0.0001163,53.2179,103.3278,90.4071,269.7055,5.9087e-05,6.53e-06,0.0,0 STARLINK-3900,1 52461U 22049L   23029.91462536  .00000653  00000-0  59087-4 0  9994,2 52461  53.2179 103.3278 0001163  90.4071 269.7055 15.08833297 41075,6917.901,95.438,540.57,538.961,0.0
52461.0,STARLINK-3900,PAYLOAD,2023-01-30 12:15:31,15.08840702,0.0001244,53.2181,100.6506,99.9858,260.1274,9.6984e-05,1.256e-05,0.0,0 STARLINK-3900,1 52461U 22049L   23030.51078095  .00001256  00000-0  96984-4 0  9992,2 52461  53.2181 100.6506 0001244  99.9858 260.1274 15.08840702 41324,6917.878,95.438,540.604,538.883,0.0
52461.0,STARLINK-3900,PAYLOAD,2023-01-30 21:47:50,15.08847778,0.0001361,53.2179,98.8678,80.621,279.4936,1.2179e-06,-2.69e-06,0.0,0 STARLINK-3900,1 52461U 22049L   23030.90821929 -.00000269  00000-0  12179-5 0  9996,2 52461  53.2179  98.8678 0001361  80.6210 279.4936 15.08847778 41225,6917.857,95.437,540.663,538.78,0.0
52461.0,STARLINK-3900,PAYLOAD,2023-01-31 10:30:55,15.08839247,0.0001312,53.2178,96.4894,80.7352,279.3789,0.00012572,1.713e-05,0.0,0 STARLINK-3900,1 52461U 22049L   23031.43814204  .00001713  00000-0  12572-3 0  9992,2 52461  53.2178  96.4894 0001312  80.7352 279.3789 15.08839247 41308,6917.883,95.438,540.655,538.84,0.0
52461.0,STARLINK-3900,PAYLOAD,2023-01-31 13:41:41,15.08845309,0.0001313,53.2179,95.8947,80.0625,280.0515,0.00017657,2.524e-05,0.0,0 STARLINK-3900,1 52461U 22049L   23031.57061684  .00002524  00000-0  17657-3 0  9993,2 52461  53.2179  95.8947 0001313  80.0625 280.0515 15.08845309 41489,6917.864,95.437,540.637,538.821,0.0
52461.0,STARLINK-3900,PAYLOAD,2023-01-31 21:38:37,15.08839424,0.0001377,53.2181,94.4062,82.2015,277.9133,5.1924e-05,5.39e-06,0.0,0 STARLINK-3900,1 52461U 22049L   23031.90182383  .00000539  00000-0  51924-4 0  9990,2 52461  53.2181  94.4062 0001377  82.2015 277.9133 15.08839424 41372,6917.882,95.438,540.7,538.795,0.0
52461.0,STARLINK-3900,PAYLOAD,2023-02-01 13:32:28,15.08845961,0.0001441,53.2178,91.4326,82.401,277.7146,6.2822e-05,7.12e-06,0.0,0 STARLINK-3900,1 52461U 22049L   23032.56421833  .00000712  00000-0  62822-4 0  9991,2 52461  53.2178  91.4326 0001441  82.4010 277.7146 15.08845961 41473,6917.862,95.437,540.724,538.73,0.0
52461.0,STARLINK-3900,PAYLOAD,2023-02-02 11:47:52,15.08843397,0.0001225,53.2183,87.2677,98.8805,261.2326,-1.2606e-05,-4.88e-06,0.0,0 STARLINK-3900,1 52461U 22049L   23033.49158142 -.00000488  00000-0 -12606-4 0  9991,2 52461  53.2183  87.2677 0001225  98.8805 261.2326 15.08843397 41619,6917.87,95.437,540.582,538.888,0.0
52461.0,STARLINK-3900,PAYLOAD,2023-02-03 11:38:39,15.08843955,0.0001467,53.2188,82.8049,100.3386,259.7771,5.5428e-05,5.94e-06,0.0,0 STARLINK-3900,1 52461U 22049L   23034.48518077  .00000594  00000-0  55428-4 0  9993,2 52461  53.2188  82.8049 0001467 100.3386 259.7771 15.08843955 41761,6917.868,95.437,540.748,538.718,0.0
52461.0,STARLINK-3900,PAYLOAD,2023-02-04 08:18:40,15.08839387,0.0001547,53.2184,78.9368,115.2685,244.8467,5.1544e-05,5.32e-06,0.0,0 STARLINK-3900,1 52461U 22049L   23035.34630483  .00000532  00000-0  51544-4 0  9992,2 52461  53.2184  78.9368 0001547 115.2685 244.8467 15.08839387 42057,6917.882,95.438,540.817,538.677,0.0
52461.0,STARLINK-3900,PAYLOAD,2023-02-04 11:29:27,15.08836777,0.0001562,53.2186,78.3438,116.9358,243.1793,1.4051e-05,-6.4e-07,0.0,0 STARLINK-3900,1 52461U 22049L   23035.47878794 -.00000064  00000-0  14051-4 0  9998,2 52461  53.2186  78.3438 0001562 116.9358 243.1793 15.08836777 41911,6917.89,95.438,540.836,538.675,0.0
52461.0,STARLINK-3900,PAYLOAD,2023-02-04 19:26:23,15.08835182,0.0001384,53.2189,76.8588,91.6004,268.5146,4.9135e-05,4.94e-06,0.0,0 STARLINK-3900,1 52461U 22049L   23035.80999003  .00000494  00000-0  49135-4 0  9999,2 52461  53.2189  76.8588 0001384  91.6004 268.5146 15.08835182 42128,6917.895,95.438,540.718,538.803,0.0
52461.0,STARLINK-3900,PAYLOAD,2023-02-05 11:20:14,15.08841036,0.0001468,53.2173,73.8878,114.1081,246.0065,0.00010579,1.396e-05,0.0,0 STARLINK-3900,1 52461U 22049L   23036.47238668  .00001396  00000-0  10579-3 0  9997,2 52461  53.2173  73.8878 0001468 114.1081 246.0065 15.08841036 42068,6917.877,95.437,540.758,538.727,0.0
52461.0,STARLINK-3900,PAYLOAD,2023-02-05 19:17:09,15.08842304,0.0001247,53.2166,72.4006,102.5192,257.5939,7.4711e-06,-1.69e-06,0.0,0 STARLINK-3900,1 52461U 22049L   23036.80358770 -.00000169  00000-0  74711-5 0  9999,2 52461  53.2166  72.4006 0001247 102.5192 257.5939 15.08842304 42119,6917.873,95.437,540.601,538.876,0.0
52461.0,STARLINK-3900,PAYLOAD,2023-02-06 09:35:38,15.08845027,0.0001362,53.2175,69.7253,97.3115,262.8032,0.00014037,1.947e-05,0.0,0 STARLINK-3900,1 52461U 22049L   23037.39974581  .00001947  00000-0  14037-3 0  9995,2 52461  53.2175  69.7253 0001362  97.3115 262.8032 15.08845027 42361,6917.865,95.437,540.672,538.788,0.0
52461.0,STARLINK-3900,PAYLOAD,2023-02-06 19:07:57,15.08842727,0.0001306,53.218,67.938,86.95,273.1642,0.00011778,1.587e-05,0.0,0 STARLINK-3900,1 52461U 22049L   23037.79718796  .00001587  00000-0  11778-3 0  9992,2 52461  53.2180  67.9380 0001306  86.9500 273.1642 15.08842727 42263,6917.872,95.437,540.641,538.834,0.0
52461.0,STARLINK-3900,PAYLOAD,2023-02-07 06:15:39,15.08838115,8.47e-05,53.2183,65.856,87.2249,272.884,0.00020411,2.962e-05,0.0,0 STARLINK-3900,1 52461U 22049L   23038.26086878  .00002962  00000-0  20411-3 0  9996,2 52461  53.2183  65.8560 0000847  87.2249 272.8840 15.08838115 42493,6917.886,95.438,540.337,539.165,0.0
52461.0,STARLINK-3900,PAYLOAD,2023-02-07 07:51:01,15.08848282,0.0001233,53.2173,65.5593,96.5929,263.5204,7.8299e-05,9.59e-06,0.0,0 STARLINK-3900,1 52461U 22049L   23038.32710554  .00000959  00000-0  78299-4 0  9990,2 52461  53.2173  65.5593 0001233  96.5929 263.5204 15.08848282 42344,6917.855,95.437,540.573,538.867,0.0
